"","tips","mm","dt.tm","Unit_ID","Rank","cat","gid","Unit_ID","Lat","Long","x","y","z","location","remarks","elevation","slope","aspect","coords.x1","coords.x2"
"29664",0.56,14,2014-06-04 14:15:00,"TBRG 121",1,28,NA,"TBRG 121",11.225503,76.525478,666716.756378,1240990.56062,2290.07,"Near Upper bhavani Dam","From the temple go down",2277,9.038458,168.1113,666716.756377548,1240990.56061865
"23906",0.52,13,2014-04-05 14:45:00,"TBRG 121",2,28,NA,"TBRG 121",11.225503,76.525478,666716.756378,1240990.56062,2290.07,"Near Upper bhavani Dam","From the temple go down",2277,9.038458,168.1113,666716.756377548,1240990.56061865
"62884",0.52,13,2015-05-16 15:15:00,"TBRG 121",3,28,NA,"TBRG 121",11.225503,76.525478,666716.756378,1240990.56062,2290.07,"Near Upper bhavani Dam","From the temple go down",2277,9.038458,168.1113,666716.756377548,1240990.56061865
"40943",0.51,12.75,2014-09-30 02:00:00,"TBRG 121",4,28,NA,"TBRG 121",11.225503,76.525478,666716.756378,1240990.56062,2290.07,"Near Upper bhavani Dam","From the temple go down",2277,9.038458,168.1113,666716.756377548,1240990.56061865
"75458",0.48,12,2015-09-24 14:45:00,"TBRG 121",5,28,NA,"TBRG 121",11.225503,76.525478,666716.756378,1240990.56062,2290.07,"Near Upper bhavani Dam","From the temple go down",2277,9.038458,168.1113,666716.756377548,1240990.56061865
"66189",0.4,10,2015-06-20 01:30:00,"TBRG 121",6,28,NA,"TBRG 121",11.225503,76.525478,666716.756378,1240990.56062,2290.07,"Near Upper bhavani Dam","From the temple go down",2277,9.038458,168.1113,666716.756377548,1240990.56061865
"66159",0.39,9.75,2015-06-19 18:00:00,"TBRG 121",7,28,NA,"TBRG 121",11.225503,76.525478,666716.756378,1240990.56062,2290.07,"Near Upper bhavani Dam","From the temple go down",2277,9.038458,168.1113,666716.756377548,1240990.56061865
"182",0.37,9.25,2013-08-01 11:45:00,"TBRG 121",8,28,NA,"TBRG 121",11.225503,76.525478,666716.756378,1240990.56062,2290.07,"Near Upper bhavani Dam","From the temple go down",2277,9.038458,168.1113,666716.756377548,1240990.56061865
"36584",0,0,2014-06-04 14:15:00,"TBRG 101",1,20,20,"TBRG 101",11.2918369999999,76.5564349999978,669880.911882871,1248700.1850178,2627.9,"Kolaripetta top tower","No rain during installation",2575,22.46737,56.30993,669880.911882871,1248700.1850178
"30826",0,0,2014-04-05 14:45:00,"TBRG 101",2,20,20,"TBRG 101",11.2918369999999,76.5564349999978,669880.911882871,1248700.1850178,2627.9,"Kolaripetta top tower","No rain during installation",2575,22.46737,56.30993,669880.911882871,1248700.1850178
"69804",0,0,2015-05-16 15:15:00,"TBRG 101",3,20,20,"TBRG 101",11.2918369999999,76.5564349999978,669880.911882871,1248700.1850178,2627.9,"Kolaripetta top tower","No rain during installation",2575,22.46737,56.30993,669880.911882871,1248700.1850178
"47863",0.01,0.24,2014-09-30 02:00:00,"TBRG 101",4,20,20,"TBRG 101",11.2918369999999,76.5564349999978,669880.911882871,1248700.1850178,2627.9,"Kolaripetta top tower","No rain during installation",2575,22.46737,56.30993,669880.911882871,1248700.1850178
"82378",0,0,2015-09-24 14:45:00,"TBRG 101",5,20,20,"TBRG 101",11.2918369999999,76.5564349999978,669880.911882871,1248700.1850178,2627.9,"Kolaripetta top tower","No rain during installation",2575,22.46737,56.30993,669880.911882871,1248700.1850178
"73109",0.02,0.48,2015-06-20 01:30:00,"TBRG 101",6,20,20,"TBRG 101",11.2918369999999,76.5564349999978,669880.911882871,1248700.1850178,2627.9,"Kolaripetta top tower","No rain during installation",2575,22.46737,56.30993,669880.911882871,1248700.1850178
"73079",0.02,0.48,2015-06-19 18:00:00,"TBRG 101",7,20,20,"TBRG 101",11.2918369999999,76.5564349999978,669880.911882871,1248700.1850178,2627.9,"Kolaripetta top tower","No rain during installation",2575,22.46737,56.30993,669880.911882871,1248700.1850178
"7102",0.11,2.64,2013-08-01 11:45:00,"TBRG 101",8,20,20,"TBRG 101",11.2918369999999,76.5564349999978,669880.911882871,1248700.1850178,2627.9,"Kolaripetta top tower","No rain during installation",2575,22.46737,56.30993,669880.911882871,1248700.1850178
"36595",0,0,2014-06-04 14:15:00,"TBRG 102",1,21,21,"TBRG 102",11.2846479999999,76.5670659999978,671045.784782464,1247911.19826642,2351.09,"Near V notch at First site","No rain during installation",2340,16.62619,206.9165,671045.784782464,1247911.19826642
"30837",0,0,2014-04-05 14:45:00,"TBRG 102",2,21,21,"TBRG 102",11.2846479999999,76.5670659999978,671045.784782464,1247911.19826642,2351.09,"Near V notch at First site","No rain during installation",2340,16.62619,206.9165,671045.784782464,1247911.19826642
"69815",0,0,2015-05-16 15:15:00,"TBRG 102",3,21,21,"TBRG 102",11.2846479999999,76.5670659999978,671045.784782464,1247911.19826642,2351.09,"Near V notch at First site","No rain during installation",2340,16.62619,206.9165,671045.784782464,1247911.19826642
"47874",0.01,0.23,2014-09-30 02:00:00,"TBRG 102",4,21,21,"TBRG 102",11.2846479999999,76.5670659999978,671045.784782464,1247911.19826642,2351.09,"Near V notch at First site","No rain during installation",2340,16.62619,206.9165,671045.784782464,1247911.19826642
"82389",0,0,2015-09-24 14:45:00,"TBRG 102",5,21,21,"TBRG 102",11.2846479999999,76.5670659999978,671045.784782464,1247911.19826642,2351.09,"Near V notch at First site","No rain during installation",2340,16.62619,206.9165,671045.784782464,1247911.19826642
"73120",0.01,0.23,2015-06-20 01:30:00,"TBRG 102",6,21,21,"TBRG 102",11.2846479999999,76.5670659999978,671045.784782464,1247911.19826642,2351.09,"Near V notch at First site","No rain during installation",2340,16.62619,206.9165,671045.784782464,1247911.19826642
"73090",0.08,1.84,2015-06-19 18:00:00,"TBRG 102",7,21,21,"TBRG 102",11.2846479999999,76.5670659999978,671045.784782464,1247911.19826642,2351.09,"Near V notch at First site","No rain during installation",2340,16.62619,206.9165,671045.784782464,1247911.19826642
"7187",0.19,4.37,2013-08-01 11:45:00,"TBRG 102",8,21,21,"TBRG 102",11.2846479999999,76.5670659999978,671045.784782464,1247911.19826642,2351.09,"Near V notch at First site","No rain during installation",2340,16.62619,206.9165,671045.784782464,1247911.19826642
"35322",0,0,2014-06-04 14:15:00,"TBRG 103",1,18,18,"TBRG 103",11.2752739999999,76.5626569999978,670569.962681476,1246871.75966258,2332.26,"Near Bunker 2 site","No rain during installation",2282,3.879076,334.9831,670569.962681476,1246871.75966258
"29564",0,0,2014-04-05 14:45:00,"TBRG 103",2,18,18,"TBRG 103",11.2752739999999,76.5626569999978,670569.962681476,1246871.75966258,2332.26,"Near Bunker 2 site","No rain during installation",2282,3.879076,334.9831,670569.962681476,1246871.75966258
"68542",0.01,0.26,2015-05-16 15:15:00,"TBRG 103",3,18,18,"TBRG 103",11.2752739999999,76.5626569999978,670569.962681476,1246871.75966258,2332.26,"Near Bunker 2 site","No rain during installation",2282,3.879076,334.9831,670569.962681476,1246871.75966258
"46601",0.03,0.78,2014-09-30 02:00:00,"TBRG 103",4,18,18,"TBRG 103",11.2752739999999,76.5626569999978,670569.962681476,1246871.75966258,2332.26,"Near Bunker 2 site","No rain during installation",2282,3.879076,334.9831,670569.962681476,1246871.75966258
"81116",0,0,2015-09-24 14:45:00,"TBRG 103",5,18,18,"TBRG 103",11.2752739999999,76.5626569999978,670569.962681476,1246871.75966258,2332.26,"Near Bunker 2 site","No rain during installation",2282,3.879076,334.9831,670569.962681476,1246871.75966258
"71847",0,0,2015-06-20 01:30:00,"TBRG 103",6,18,18,"TBRG 103",11.2752739999999,76.5626569999978,670569.962681476,1246871.75966258,2332.26,"Near Bunker 2 site","No rain during installation",2282,3.879076,334.9831,670569.962681476,1246871.75966258
"71817",0.15,3.9,2015-06-19 18:00:00,"TBRG 103",7,18,18,"TBRG 103",11.2752739999999,76.5626569999978,670569.962681476,1246871.75966258,2332.26,"Near Bunker 2 site","No rain during installation",2282,3.879076,334.9831,670569.962681476,1246871.75966258
"7093",0.19,4.94,2013-08-01 11:45:00,"TBRG 103",8,18,18,"TBRG 103",11.2752739999999,76.5626569999978,670569.962681476,1246871.75966258,2332.26,"Near Bunker 2 site","No rain during installation",2282,3.879076,334.9831,670569.962681476,1246871.75966258
"36561",0,0,2014-06-04 14:15:00,"TBRG 104",1,19,19,"TBRG 104",11.2996179999999,76.5918329999976,673740.742378222,1249581.65416287,2163.89,"Avalanchi forest guest house","No rain during installation",2000,2.345711,143.1301,673740.742378222,1249581.65416287
"30803",0,0,2014-04-05 14:45:00,"TBRG 104",2,19,19,"TBRG 104",11.2996179999999,76.5918329999976,673740.742378222,1249581.65416287,2163.89,"Avalanchi forest guest house","No rain during installation",2000,2.345711,143.1301,673740.742378222,1249581.65416287
"69781",0,0,2015-05-16 15:15:00,"TBRG 104",3,19,19,"TBRG 104",11.2996179999999,76.5918329999976,673740.742378222,1249581.65416287,2163.89,"Avalanchi forest guest house","No rain during installation",2000,2.345711,143.1301,673740.742378222,1249581.65416287
"47840",0.02,0.52,2014-09-30 02:00:00,"TBRG 104",4,19,19,"TBRG 104",11.2996179999999,76.5918329999976,673740.742378222,1249581.65416287,2163.89,"Avalanchi forest guest house","No rain during installation",2000,2.345711,143.1301,673740.742378222,1249581.65416287
"82355",0,0,2015-09-24 14:45:00,"TBRG 104",5,19,19,"TBRG 104",11.2996179999999,76.5918329999976,673740.742378222,1249581.65416287,2163.89,"Avalanchi forest guest house","No rain during installation",2000,2.345711,143.1301,673740.742378222,1249581.65416287
"73086",0.08,2.08,2015-06-20 01:30:00,"TBRG 104",6,19,19,"TBRG 104",11.2996179999999,76.5918329999976,673740.742378222,1249581.65416287,2163.89,"Avalanchi forest guest house","No rain during installation",2000,2.345711,143.1301,673740.742378222,1249581.65416287
"73056",0.03,0.78,2015-06-19 18:00:00,"TBRG 104",7,19,19,"TBRG 104",11.2996179999999,76.5918329999976,673740.742378222,1249581.65416287,2163.89,"Avalanchi forest guest house","No rain during installation",2000,2.345711,143.1301,673740.742378222,1249581.65416287
"7079",0.03,0.78,2013-08-01 11:45:00,"TBRG 104",8,19,19,"TBRG 104",11.2996179999999,76.5918329999976,673740.742378222,1249581.65416287,2163.89,"Avalanchi forest guest house","No rain during installation",2000,2.345711,143.1301,673740.742378222,1249581.65416287
"35240",0,0,2014-06-04 14:15:00,"TBRG 105",1,17,17,"TBRG 105",11.2588059999999,76.5721219999977,671613.111722181,1245055.74402434,2319.95,"Past Jackal below Devar Betta","Photo 762-764",2295,27.36893,76.73352,671613.111722181,1245055.74402434
"29482",0,0,2014-04-05 14:45:00,"TBRG 105",2,17,17,"TBRG 105",11.2588059999999,76.5721219999977,671613.111722181,1245055.74402434,2319.95,"Past Jackal below Devar Betta","Photo 762-764",2295,27.36893,76.73352,671613.111722181,1245055.74402434
"68460",0.05,1.2,2015-05-16 15:15:00,"TBRG 105",3,17,17,"TBRG 105",11.2588059999999,76.5721219999977,671613.111722181,1245055.74402434,2319.95,"Past Jackal below Devar Betta","Photo 762-764",2295,27.36893,76.73352,671613.111722181,1245055.74402434
"46519",0.09,2.16,2014-09-30 02:00:00,"TBRG 105",4,17,17,"TBRG 105",11.2588059999999,76.5721219999977,671613.111722181,1245055.74402434,2319.95,"Past Jackal below Devar Betta","Photo 762-764",2295,27.36893,76.73352,671613.111722181,1245055.74402434
"81034",0,0,2015-09-24 14:45:00,"TBRG 105",5,17,17,"TBRG 105",11.2588059999999,76.5721219999977,671613.111722181,1245055.74402434,2319.95,"Past Jackal below Devar Betta","Photo 762-764",2295,27.36893,76.73352,671613.111722181,1245055.74402434
"71765",0,0,2015-06-20 01:30:00,"TBRG 105",6,17,17,"TBRG 105",11.2588059999999,76.5721219999977,671613.111722181,1245055.74402434,2319.95,"Past Jackal below Devar Betta","Photo 762-764",2295,27.36893,76.73352,671613.111722181,1245055.74402434
"71735",0.26,6.24,2015-06-19 18:00:00,"TBRG 105",7,17,17,"TBRG 105",11.2588059999999,76.5721219999977,671613.111722181,1245055.74402434,2319.95,"Past Jackal below Devar Betta","Photo 762-764",2295,27.36893,76.73352,671613.111722181,1245055.74402434
"5758",0.09,2.16,2013-08-01 11:45:00,"TBRG 105",8,17,17,"TBRG 105",11.2588059999999,76.5721219999977,671613.111722181,1245055.74402434,2319.95,"Past Jackal below Devar Betta","Photo 762-764",2295,27.36893,76.73352,671613.111722181,1245055.74402434
"35236",0,0,2014-06-04 14:15:00,"TBRG 106",1,16,16,"TBRG 106",11.2722629999999,76.5778559999977,672231.173087783,1246547.6028179,2325.46,"On way to jackal before Devar Betta near 3m falls","Photo 760-761",2314,13.57373,255.2564,672231.173087783,1246547.6028179
"29478",0,0,2014-04-05 14:45:00,"TBRG 106",2,16,16,"TBRG 106",11.2722629999999,76.5778559999977,672231.173087783,1246547.6028179,2325.46,"On way to jackal before Devar Betta near 3m falls","Photo 760-761",2314,13.57373,255.2564,672231.173087783,1246547.6028179
"68456",0.03,0.78,2015-05-16 15:15:00,"TBRG 106",3,16,16,"TBRG 106",11.2722629999999,76.5778559999977,672231.173087783,1246547.6028179,2325.46,"On way to jackal before Devar Betta near 3m falls","Photo 760-761",2314,13.57373,255.2564,672231.173087783,1246547.6028179
"46515",0.04,1.04,2014-09-30 02:00:00,"TBRG 106",4,16,16,"TBRG 106",11.2722629999999,76.5778559999977,672231.173087783,1246547.6028179,2325.46,"On way to jackal before Devar Betta near 3m falls","Photo 760-761",2314,13.57373,255.2564,672231.173087783,1246547.6028179
"81030",0,0,2015-09-24 14:45:00,"TBRG 106",5,16,16,"TBRG 106",11.2722629999999,76.5778559999977,672231.173087783,1246547.6028179,2325.46,"On way to jackal before Devar Betta near 3m falls","Photo 760-761",2314,13.57373,255.2564,672231.173087783,1246547.6028179
"71761",0,0,2015-06-20 01:30:00,"TBRG 106",6,16,16,"TBRG 106",11.2722629999999,76.5778559999977,672231.173087783,1246547.6028179,2325.46,"On way to jackal before Devar Betta near 3m falls","Photo 760-761",2314,13.57373,255.2564,672231.173087783,1246547.6028179
"71731",0.2,5.2,2015-06-19 18:00:00,"TBRG 106",7,16,16,"TBRG 106",11.2722629999999,76.5778559999977,672231.173087783,1246547.6028179,2325.46,"On way to jackal before Devar Betta near 3m falls","Photo 760-761",2314,13.57373,255.2564,672231.173087783,1246547.6028179
"5754",0.12,3.12,2013-08-01 11:45:00,"TBRG 106",8,16,16,"TBRG 106",11.2722629999999,76.5778559999977,672231.173087783,1246547.6028179,2325.46,"On way to jackal before Devar Betta near 3m falls","Photo 760-761",2314,13.57373,255.2564,672231.173087783,1246547.6028179
"35234",0,0,2014-06-04 14:15:00,"TBRG 107",1,15,12,"TBRG 107",11.2856209999999,76.5741079999977,671814.022111233,1248022.94815239,2265.79,"Near landslide below Nariadu Betta","On steep slope",2308,15.59079,310.2364,671814.022111233,1248022.94815239
"29476",0,0,2014-04-05 14:45:00,"TBRG 107",2,15,12,"TBRG 107",11.2856209999999,76.5741079999977,671814.022111233,1248022.94815239,2265.79,"Near landslide below Nariadu Betta","On steep slope",2308,15.59079,310.2364,671814.022111233,1248022.94815239
"68454",0,0,2015-05-16 15:15:00,"TBRG 107",3,15,12,"TBRG 107",11.2856209999999,76.5741079999977,671814.022111233,1248022.94815239,2265.79,"Near landslide below Nariadu Betta","On steep slope",2308,15.59079,310.2364,671814.022111233,1248022.94815239
"46513",0.01,0.26,2014-09-30 02:00:00,"TBRG 107",4,15,12,"TBRG 107",11.2856209999999,76.5741079999977,671814.022111233,1248022.94815239,2265.79,"Near landslide below Nariadu Betta","On steep slope",2308,15.59079,310.2364,671814.022111233,1248022.94815239
"81028",0,0,2015-09-24 14:45:00,"TBRG 107",5,15,12,"TBRG 107",11.2856209999999,76.5741079999977,671814.022111233,1248022.94815239,2265.79,"Near landslide below Nariadu Betta","On steep slope",2308,15.59079,310.2364,671814.022111233,1248022.94815239
"71759",0.01,0.26,2015-06-20 01:30:00,"TBRG 107",6,15,12,"TBRG 107",11.2856209999999,76.5741079999977,671814.022111233,1248022.94815239,2265.79,"Near landslide below Nariadu Betta","On steep slope",2308,15.59079,310.2364,671814.022111233,1248022.94815239
"71729",0.06,1.56,2015-06-19 18:00:00,"TBRG 107",7,15,12,"TBRG 107",11.2856209999999,76.5741079999977,671814.022111233,1248022.94815239,2265.79,"Near landslide below Nariadu Betta","On steep slope",2308,15.59079,310.2364,671814.022111233,1248022.94815239
"5752",0.17,4.42,2013-08-01 11:45:00,"TBRG 107",8,15,12,"TBRG 107",11.2856209999999,76.5741079999977,671814.022111233,1248022.94815239,2265.79,"Near landslide below Nariadu Betta","On steep slope",2308,15.59079,310.2364,671814.022111233,1248022.94815239
"34953",0,0,2014-06-04 14:15:00,"TBRG 108",1,9,28,"TBRG 108",11.2718329999999,76.5704249999977,671420.106396372,1246495.68183352,2362.19,"Overlooking Lakdihalla temple","On ridge",2345,2.345711,143.1301,671420.106396372,1246495.68183352
"29195",0,0,2014-04-05 14:45:00,"TBRG 108",2,9,28,"TBRG 108",11.2718329999999,76.5704249999977,671420.106396372,1246495.68183352,2362.19,"Overlooking Lakdihalla temple","On ridge",2345,2.345711,143.1301,671420.106396372,1246495.68183352
"67710",0.01,0.26,2015-05-16 15:15:00,"TBRG 108",3,9,28,"TBRG 108",11.2718329999999,76.5704249999977,671420.106396372,1246495.68183352,2362.19,"Overlooking Lakdihalla temple","On ridge",2345,2.345711,143.1301,671420.106396372,1246495.68183352
"NA",NA,NA,NA,"TBRG 108",4,9,28,"TBRG 108",11.2718329999999,76.5704249999977,671420.106396372,1246495.68183352,2362.19,"Overlooking Lakdihalla temple","On ridge",2345,2.345711,143.1301,671420.106396372,1246495.68183352
"80284",0,0,2015-09-24 14:45:00,"TBRG 108",5,9,28,"TBRG 108",11.2718329999999,76.5704249999977,671420.106396372,1246495.68183352,2362.19,"Overlooking Lakdihalla temple","On ridge",2345,2.345711,143.1301,671420.106396372,1246495.68183352
"71015",0,0,2015-06-20 01:30:00,"TBRG 108",6,9,28,"TBRG 108",11.2718329999999,76.5704249999977,671420.106396372,1246495.68183352,2362.19,"Overlooking Lakdihalla temple","On ridge",2345,2.345711,143.1301,671420.106396372,1246495.68183352
"70985",0.15,3.9,2015-06-19 18:00:00,"TBRG 108",7,9,28,"TBRG 108",11.2718329999999,76.5704249999977,671420.106396372,1246495.68183352,2362.19,"Overlooking Lakdihalla temple","On ridge",2345,2.345711,143.1301,671420.106396372,1246495.68183352
"5471",0.14,3.64,2013-08-01 11:45:00,"TBRG 108",8,9,28,"TBRG 108",11.2718329999999,76.5704249999977,671420.106396372,1246495.68183352,2362.19,"Overlooking Lakdihalla temple","On ridge",2345,2.345711,143.1301,671420.106396372,1246495.68183352
"34667",0,0,2014-06-04 14:15:00,"TBRG 109",1,12,32,"TBRG 109",11.2814599999999,76.5607659999978,670359.859068118,1247554.89667452,2402.05,"Off road branching off Kollari Betta road. 300m from branch off.","On ridge",2378,19.84428,243.7258,670359.859068118,1247554.89667452
"28909",0,0,2014-04-05 14:45:00,"TBRG 109",2,12,32,"TBRG 109",11.2814599999999,76.5607659999978,670359.859068118,1247554.89667452,2402.05,"Off road branching off Kollari Betta road. 300m from branch off.","On ridge",2378,19.84428,243.7258,670359.859068118,1247554.89667452
"67887",0,0,2015-05-16 15:15:00,"TBRG 109",3,12,32,"TBRG 109",11.2814599999999,76.5607659999978,670359.859068118,1247554.89667452,2402.05,"Off road branching off Kollari Betta road. 300m from branch off.","On ridge",2378,19.84428,243.7258,670359.859068118,1247554.89667452
"45946",0.02,0.5,2014-09-30 02:00:00,"TBRG 109",4,12,32,"TBRG 109",11.2814599999999,76.5607659999978,670359.859068118,1247554.89667452,2402.05,"Off road branching off Kollari Betta road. 300m from branch off.","On ridge",2378,19.84428,243.7258,670359.859068118,1247554.89667452
"80461",0,0,2015-09-24 14:45:00,"TBRG 109",5,12,32,"TBRG 109",11.2814599999999,76.5607659999978,670359.859068118,1247554.89667452,2402.05,"Off road branching off Kollari Betta road. 300m from branch off.","On ridge",2378,19.84428,243.7258,670359.859068118,1247554.89667452
"71192",0.01,0.25,2015-06-20 01:30:00,"TBRG 109",6,12,32,"TBRG 109",11.2814599999999,76.5607659999978,670359.859068118,1247554.89667452,2402.05,"Off road branching off Kollari Betta road. 300m from branch off.","On ridge",2378,19.84428,243.7258,670359.859068118,1247554.89667452
"71162",0.1,2.5,2015-06-19 18:00:00,"TBRG 109",7,12,32,"TBRG 109",11.2814599999999,76.5607659999978,670359.859068118,1247554.89667452,2402.05,"Off road branching off Kollari Betta road. 300m from branch off.","On ridge",2378,19.84428,243.7258,670359.859068118,1247554.89667452
"5185",0.2,5,2013-08-01 11:45:00,"TBRG 109",8,12,32,"TBRG 109",11.2814599999999,76.5607659999978,670359.859068118,1247554.89667452,2402.05,"Off road branching off Kollari Betta road. 300m from branch off.","On ridge",2378,19.84428,243.7258,670359.859068118,1247554.89667452
"34967",0,0,2014-06-04 14:15:00,"TBRG 110",1,8,27,"TBRG 110",11.2703029999999,76.5602209999978,670306.930468473,1246320.49685856,2399.75,"Overlooking U Bhavani at end of road","On ridge",2347,8.895783,137.1211,670306.930468473,1246320.49685856
"29209",0,0,2014-04-05 14:45:00,"TBRG 110",2,8,27,"TBRG 110",11.2703029999999,76.5602209999978,670306.930468473,1246320.49685856,2399.75,"Overlooking U Bhavani at end of road","On ridge",2347,8.895783,137.1211,670306.930468473,1246320.49685856
"68187",0.03,0.81,2015-05-16 15:15:00,"TBRG 110",3,8,27,"TBRG 110",11.2703029999999,76.5602209999978,670306.930468473,1246320.49685856,2399.75,"Overlooking U Bhavani at end of road","On ridge",2347,8.895783,137.1211,670306.930468473,1246320.49685856
"46246",0.03,0.81,2014-09-30 02:00:00,"TBRG 110",4,8,27,"TBRG 110",11.2703029999999,76.5602209999978,670306.930468473,1246320.49685856,2399.75,"Overlooking U Bhavani at end of road","On ridge",2347,8.895783,137.1211,670306.930468473,1246320.49685856
"80761",0,0,2015-09-24 14:45:00,"TBRG 110",5,8,27,"TBRG 110",11.2703029999999,76.5602209999978,670306.930468473,1246320.49685856,2399.75,"Overlooking U Bhavani at end of road","On ridge",2347,8.895783,137.1211,670306.930468473,1246320.49685856
"71492",0,0,2015-06-20 01:30:00,"TBRG 110",6,8,27,"TBRG 110",11.2703029999999,76.5602209999978,670306.930468473,1246320.49685856,2399.75,"Overlooking U Bhavani at end of road","On ridge",2347,8.895783,137.1211,670306.930468473,1246320.49685856
"71462",0.13,3.51,2015-06-19 18:00:00,"TBRG 110",7,8,27,"TBRG 110",11.2703029999999,76.5602209999978,670306.930468473,1246320.49685856,2399.75,"Overlooking U Bhavani at end of road","On ridge",2347,8.895783,137.1211,670306.930468473,1246320.49685856
"5485",0,0,2013-08-01 11:45:00,"TBRG 110",8,8,27,"TBRG 110",11.2703029999999,76.5602209999978,670306.930468473,1246320.49685856,2399.75,"Overlooking U Bhavani at end of road","On ridge",2347,8.895783,137.1211,670306.930468473,1246320.49685856
"NA1",NA,NA,NA,"TBRG 110a",1,8,27,"TBRG 110a",11.2703029999999,76.5602209999978,670306.930468473,1246320.49685856,2399.75,"Overlooking U Bhavani at end of road","On ridge",2347,8.895783,137.1211,670306.930468473,1246320.49685856
"NA.1",NA,NA,NA,"TBRG 110a",2,8,27,"TBRG 110a",11.2703029999999,76.5602209999978,670306.930468473,1246320.49685856,2399.75,"Overlooking U Bhavani at end of road","On ridge",2347,8.895783,137.1211,670306.930468473,1246320.49685856
"NA.2",NA,NA,NA,"TBRG 110a",3,8,27,"TBRG 110a",11.2703029999999,76.5602209999978,670306.930468473,1246320.49685856,2399.75,"Overlooking U Bhavani at end of road","On ridge",2347,8.895783,137.1211,670306.930468473,1246320.49685856
"NA.3",NA,NA,NA,"TBRG 110a",4,8,27,"TBRG 110a",11.2703029999999,76.5602209999978,670306.930468473,1246320.49685856,2399.75,"Overlooking U Bhavani at end of road","On ridge",2347,8.895783,137.1211,670306.930468473,1246320.49685856
"NA.4",NA,NA,NA,"TBRG 110a",5,8,27,"TBRG 110a",11.2703029999999,76.5602209999978,670306.930468473,1246320.49685856,2399.75,"Overlooking U Bhavani at end of road","On ridge",2347,8.895783,137.1211,670306.930468473,1246320.49685856
"NA.5",NA,NA,NA,"TBRG 110a",6,8,27,"TBRG 110a",11.2703029999999,76.5602209999978,670306.930468473,1246320.49685856,2399.75,"Overlooking U Bhavani at end of road","On ridge",2347,8.895783,137.1211,670306.930468473,1246320.49685856
"NA.6",NA,NA,NA,"TBRG 110a",7,8,27,"TBRG 110a",11.2703029999999,76.5602209999978,670306.930468473,1246320.49685856,2399.75,"Overlooking U Bhavani at end of road","On ridge",2347,8.895783,137.1211,670306.930468473,1246320.49685856
"NA.7",NA,NA,NA,"TBRG 110a",8,8,27,"TBRG 110a",11.2703029999999,76.5602209999978,670306.930468473,1246320.49685856,2399.75,"Overlooking U Bhavani at end of road","On ridge",2347,8.895783,137.1211,670306.930468473,1246320.49685856
"34654",0,0,2014-06-04 14:15:00,"TBRG 111",1,13,33,"TBRG 111",11.2893399999999,76.5617819999978,670466.131816438,1248427.10094809,2458.26,"Below Kollari Betta, smack below the road","On ridge",2454,24.46756,256.4641,670466.131816438,1248427.10094809
"28896",0,0,2014-04-05 14:45:00,"TBRG 111",2,13,33,"TBRG 111",11.2893399999999,76.5617819999978,670466.131816438,1248427.10094809,2458.26,"Below Kollari Betta, smack below the road","On ridge",2454,24.46756,256.4641,670466.131816438,1248427.10094809
"67874",0,0,2015-05-16 15:15:00,"TBRG 111",3,13,33,"TBRG 111",11.2893399999999,76.5617819999978,670466.131816438,1248427.10094809,2458.26,"Below Kollari Betta, smack below the road","On ridge",2454,24.46756,256.4641,670466.131816438,1248427.10094809
"45933",0.01,0.25,2014-09-30 02:00:00,"TBRG 111",4,13,33,"TBRG 111",11.2893399999999,76.5617819999978,670466.131816438,1248427.10094809,2458.26,"Below Kollari Betta, smack below the road","On ridge",2454,24.46756,256.4641,670466.131816438,1248427.10094809
"80448",0,0,2015-09-24 14:45:00,"TBRG 111",5,13,33,"TBRG 111",11.2893399999999,76.5617819999978,670466.131816438,1248427.10094809,2458.26,"Below Kollari Betta, smack below the road","On ridge",2454,24.46756,256.4641,670466.131816438,1248427.10094809
"71179",0,0,2015-06-20 01:30:00,"TBRG 111",6,13,33,"TBRG 111",11.2893399999999,76.5617819999978,670466.131816438,1248427.10094809,2458.26,"Below Kollari Betta, smack below the road","On ridge",2454,24.46756,256.4641,670466.131816438,1248427.10094809
"71149",0.03,0.75,2015-06-19 18:00:00,"TBRG 111",7,13,33,"TBRG 111",11.2893399999999,76.5617819999978,670466.131816438,1248427.10094809,2458.26,"Below Kollari Betta, smack below the road","On ridge",2454,24.46756,256.4641,670466.131816438,1248427.10094809
"5172",0.15,3.75,2013-08-01 11:45:00,"TBRG 111",8,13,33,"TBRG 111",11.2893399999999,76.5617819999978,670466.131816438,1248427.10094809,2458.26,"Below Kollari Betta, smack below the road","On ridge",2454,24.46756,256.4641,670466.131816438,1248427.10094809
"34672",0,0,2014-06-04 14:15:00,"TBRG 112",1,14,29,"TBRG 112",11.2983559999999,76.5717639999977,671550.546143604,1249430.20782142,2327.49,"Overlooking Avalanche generation station","Just below ridge",2293,28.00674,102.0023,671550.546143604,1249430.20782142
"28914",0,0,2014-04-05 14:45:00,"TBRG 112",2,14,29,"TBRG 112",11.2983559999999,76.5717639999977,671550.546143604,1249430.20782142,2327.49,"Overlooking Avalanche generation station","Just below ridge",2293,28.00674,102.0023,671550.546143604,1249430.20782142
"67892",0,0,2015-05-16 15:15:00,"TBRG 112",3,14,29,"TBRG 112",11.2983559999999,76.5717639999977,671550.546143604,1249430.20782142,2327.49,"Overlooking Avalanche generation station","Just below ridge",2293,28.00674,102.0023,671550.546143604,1249430.20782142
"45951",0.01,0.26,2014-09-30 02:00:00,"TBRG 112",4,14,29,"TBRG 112",11.2983559999999,76.5717639999977,671550.546143604,1249430.20782142,2327.49,"Overlooking Avalanche generation station","Just below ridge",2293,28.00674,102.0023,671550.546143604,1249430.20782142
"80466",0,0,2015-09-24 14:45:00,"TBRG 112",5,14,29,"TBRG 112",11.2983559999999,76.5717639999977,671550.546143604,1249430.20782142,2327.49,"Overlooking Avalanche generation station","Just below ridge",2293,28.00674,102.0023,671550.546143604,1249430.20782142
"71197",0.03,0.78,2015-06-20 01:30:00,"TBRG 112",6,14,29,"TBRG 112",11.2983559999999,76.5717639999977,671550.546143604,1249430.20782142,2327.49,"Overlooking Avalanche generation station","Just below ridge",2293,28.00674,102.0023,671550.546143604,1249430.20782142
"71167",0.04,1.04,2015-06-19 18:00:00,"TBRG 112",7,14,29,"TBRG 112",11.2983559999999,76.5717639999977,671550.546143604,1249430.20782142,2327.49,"Overlooking Avalanche generation station","Just below ridge",2293,28.00674,102.0023,671550.546143604,1249430.20782142
"5190",0.03,0.78,2013-08-01 11:45:00,"TBRG 112",8,14,29,"TBRG 112",11.2983559999999,76.5717639999977,671550.546143604,1249430.20782142,2327.49,"Overlooking Avalanche generation station","Just below ridge",2293,28.00674,102.0023,671550.546143604,1249430.20782142
"34660",0,0,2014-06-04 14:15:00,"TBRG 113",1,10,30,"TBRG 113",11.2715029999999,76.5517269999979,669378.848250862,1246448.30578536,2347.01,"Border of Mukurthi beyond medow","On ridge",2290,16.56694,128.2902,669378.848250862,1246448.30578536
"28902",0,0,2014-04-05 14:45:00,"TBRG 113",2,10,30,"TBRG 113",11.2715029999999,76.5517269999979,669378.848250862,1246448.30578536,2347.01,"Border of Mukurthi beyond medow","On ridge",2290,16.56694,128.2902,669378.848250862,1246448.30578536
"67879",0.13,3.38,2015-05-16 15:15:00,"TBRG 113",3,10,30,"TBRG 113",11.2715029999999,76.5517269999979,669378.848250862,1246448.30578536,2347.01,"Border of Mukurthi beyond medow","On ridge",2290,16.56694,128.2902,669378.848250862,1246448.30578536
"45939",0.02,0.52,2014-09-30 02:00:00,"TBRG 113",4,10,30,"TBRG 113",11.2715029999999,76.5517269999979,669378.848250862,1246448.30578536,2347.01,"Border of Mukurthi beyond medow","On ridge",2290,16.56694,128.2902,669378.848250862,1246448.30578536
"80453",0,0,2015-09-24 14:45:00,"TBRG 113",5,10,30,"TBRG 113",11.2715029999999,76.5517269999979,669378.848250862,1246448.30578536,2347.01,"Border of Mukurthi beyond medow","On ridge",2290,16.56694,128.2902,669378.848250862,1246448.30578536
"71184",0,0,2015-06-20 01:30:00,"TBRG 113",6,10,30,"TBRG 113",11.2715029999999,76.5517269999979,669378.848250862,1246448.30578536,2347.01,"Border of Mukurthi beyond medow","On ridge",2290,16.56694,128.2902,669378.848250862,1246448.30578536
"71154",0.08,2.08,2015-06-19 18:00:00,"TBRG 113",7,10,30,"TBRG 113",11.2715029999999,76.5517269999979,669378.848250862,1246448.30578536,2347.01,"Border of Mukurthi beyond medow","On ridge",2290,16.56694,128.2902,669378.848250862,1246448.30578536
"5178",0.1,2.6,2013-08-01 11:45:00,"TBRG 113",8,10,30,"TBRG 113",11.2715029999999,76.5517269999979,669378.848250862,1246448.30578536,2347.01,"Border of Mukurthi beyond medow","On ridge",2290,16.56694,128.2902,669378.848250862,1246448.30578536
"34676",0,0,2014-06-04 14:15:00,"TBRG 114",1,11,31,"TBRG 114",11.3052269999999,76.5767539999977,672091.20851762,1250193.15344316,1999.51,"Next to rain gauge in Avalache generation station",NA,1995,7.210908,240.9454,672091.20851762,1250193.15344316
"28918",0,0,2014-04-05 14:45:00,"TBRG 114",2,11,31,"TBRG 114",11.3052269999999,76.5767539999977,672091.20851762,1250193.15344316,1999.51,"Next to rain gauge in Avalache generation station",NA,1995,7.210908,240.9454,672091.20851762,1250193.15344316
"67896",0,0,2015-05-16 15:15:00,"TBRG 114",3,11,31,"TBRG 114",11.3052269999999,76.5767539999977,672091.20851762,1250193.15344316,1999.51,"Next to rain gauge in Avalache generation station",NA,1995,7.210908,240.9454,672091.20851762,1250193.15344316
"45955",0.01,0.25,2014-09-30 02:00:00,"TBRG 114",4,11,31,"TBRG 114",11.3052269999999,76.5767539999977,672091.20851762,1250193.15344316,1999.51,"Next to rain gauge in Avalache generation station",NA,1995,7.210908,240.9454,672091.20851762,1250193.15344316
"80470",0,0,2015-09-24 14:45:00,"TBRG 114",5,11,31,"TBRG 114",11.3052269999999,76.5767539999977,672091.20851762,1250193.15344316,1999.51,"Next to rain gauge in Avalache generation station",NA,1995,7.210908,240.9454,672091.20851762,1250193.15344316
"71201",0.07,1.75,2015-06-20 01:30:00,"TBRG 114",6,11,31,"TBRG 114",11.3052269999999,76.5767539999977,672091.20851762,1250193.15344316,1999.51,"Next to rain gauge in Avalache generation station",NA,1995,7.210908,240.9454,672091.20851762,1250193.15344316
"71171",0.04,1,2015-06-19 18:00:00,"TBRG 114",7,11,31,"TBRG 114",11.3052269999999,76.5767539999977,672091.20851762,1250193.15344316,1999.51,"Next to rain gauge in Avalache generation station",NA,1995,7.210908,240.9454,672091.20851762,1250193.15344316
"5194",0.04,1,2013-08-01 11:45:00,"TBRG 114",8,11,31,"TBRG 114",11.3052269999999,76.5767539999977,672091.20851762,1250193.15344316,1999.51,"Next to rain gauge in Avalache generation station",NA,1995,7.210908,240.9454,672091.20851762,1250193.15344316
"33521",0,0,2014-06-04 14:15:00,"TBRG 115",1,22,25,"TBRG 115",11.279193,76.568964,671256.233536,1247308.92474,2321.27,"near bavani amman temple",NA,2336,21.16993,280.359,671256.233536253,1247308.92473709
"27763",0,0,2014-04-05 14:45:00,"TBRG 115",2,22,25,"TBRG 115",11.279193,76.568964,671256.233536,1247308.92474,2321.27,"near bavani amman temple",NA,2336,21.16993,280.359,671256.233536253,1247308.92473709
"66741",0.01,0.26,2015-05-16 15:15:00,"TBRG 115",3,22,25,"TBRG 115",11.279193,76.568964,671256.233536,1247308.92474,2321.27,"near bavani amman temple",NA,2336,21.16993,280.359,671256.233536253,1247308.92473709
"44800",0.01,0.26,2014-09-30 02:00:00,"TBRG 115",4,22,25,"TBRG 115",11.279193,76.568964,671256.233536,1247308.92474,2321.27,"near bavani amman temple",NA,2336,21.16993,280.359,671256.233536253,1247308.92473709
"79315",0,0,2015-09-24 14:45:00,"TBRG 115",5,22,25,"TBRG 115",11.279193,76.568964,671256.233536,1247308.92474,2321.27,"near bavani amman temple",NA,2336,21.16993,280.359,671256.233536253,1247308.92473709
"70046",0.02,0.52,2015-06-20 01:30:00,"TBRG 115",6,22,25,"TBRG 115",11.279193,76.568964,671256.233536,1247308.92474,2321.27,"near bavani amman temple",NA,2336,21.16993,280.359,671256.233536253,1247308.92473709
"70016",0.14,3.64,2015-06-19 18:00:00,"TBRG 115",7,22,25,"TBRG 115",11.279193,76.568964,671256.233536,1247308.92474,2321.27,"near bavani amman temple",NA,2336,21.16993,280.359,671256.233536253,1247308.92473709
"4039",0.17,4.42,2013-08-01 11:45:00,"TBRG 115",8,22,25,"TBRG 115",11.279193,76.568964,671256.233536,1247308.92474,2321.27,"near bavani amman temple",NA,2336,21.16993,280.359,671256.233536253,1247308.92473709
"33321",0,0,2014-06-04 14:15:00,"TBRG 116",1,23,34,"TBRG 116",11.262354,76.551316,669339.330019,1245436.09618,2338.08,NA,"Near upper bavani",2305,18.77905,301.2005,669339.330019145,1245436.09617714
"27563",0,0,2014-04-05 14:45:00,"TBRG 116",2,23,34,"TBRG 116",11.262354,76.551316,669339.330019,1245436.09618,2338.08,NA,"Near upper bavani",2305,18.77905,301.2005,669339.330019145,1245436.09617714
"66541",0.11,2.75,2015-05-16 15:15:00,"TBRG 116",3,23,34,"TBRG 116",11.262354,76.551316,669339.330019,1245436.09618,2338.08,NA,"Near upper bavani",2305,18.77905,301.2005,669339.330019145,1245436.09617714
"44600",0.04,1,2014-09-30 02:00:00,"TBRG 116",4,23,34,"TBRG 116",11.262354,76.551316,669339.330019,1245436.09618,2338.08,NA,"Near upper bavani",2305,18.77905,301.2005,669339.330019145,1245436.09617714
"79115",0,0,2015-09-24 14:45:00,"TBRG 116",5,23,34,"TBRG 116",11.262354,76.551316,669339.330019,1245436.09618,2338.08,NA,"Near upper bavani",2305,18.77905,301.2005,669339.330019145,1245436.09617714
"69846",0,0,2015-06-20 01:30:00,"TBRG 116",6,23,34,"TBRG 116",11.262354,76.551316,669339.330019,1245436.09618,2338.08,NA,"Near upper bavani",2305,18.77905,301.2005,669339.330019145,1245436.09617714
"69816",0.21,5.25,2015-06-19 18:00:00,"TBRG 116",7,23,34,"TBRG 116",11.262354,76.551316,669339.330019,1245436.09618,2338.08,NA,"Near upper bavani",2305,18.77905,301.2005,669339.330019145,1245436.09617714
"3839",0.13,3.25,2013-08-01 11:45:00,"TBRG 116",8,23,34,"TBRG 116",11.262354,76.551316,669339.330019,1245436.09618,2338.08,NA,"Near upper bavani",2305,18.77905,301.2005,669339.330019145,1245436.09617714
"33132",0,0,2014-06-04 14:15:00,"TBRG 117",1,24,13,"TBRG 117",11.298367,76.598458,674464.759159,1249447.22418,2158.15,NA,"Near forest gest house",2133,12.30186,354.6107,674464.75915918,1249447.22417936
"27374",0,0,2014-04-05 14:45:00,"TBRG 117",2,24,13,"TBRG 117",11.298367,76.598458,674464.759159,1249447.22418,2158.15,NA,"Near forest gest house",2133,12.30186,354.6107,674464.75915918,1249447.22417936
"66352",0,0,2015-05-16 15:15:00,"TBRG 117",3,24,13,"TBRG 117",11.298367,76.598458,674464.759159,1249447.22418,2158.15,NA,"Near forest gest house",2133,12.30186,354.6107,674464.75915918,1249447.22417936
"44411",0.02,0.5,2014-09-30 02:00:00,"TBRG 117",4,24,13,"TBRG 117",11.298367,76.598458,674464.759159,1249447.22418,2158.15,NA,"Near forest gest house",2133,12.30186,354.6107,674464.75915918,1249447.22417936
"78926",0,0,2015-09-24 14:45:00,"TBRG 117",5,24,13,"TBRG 117",11.298367,76.598458,674464.759159,1249447.22418,2158.15,NA,"Near forest gest house",2133,12.30186,354.6107,674464.75915918,1249447.22417936
"69657",0.07,1.75,2015-06-20 01:30:00,"TBRG 117",6,24,13,"TBRG 117",11.298367,76.598458,674464.759159,1249447.22418,2158.15,NA,"Near forest gest house",2133,12.30186,354.6107,674464.75915918,1249447.22417936
"69627",0.04,1,2015-06-19 18:00:00,"TBRG 117",7,24,13,"TBRG 117",11.298367,76.598458,674464.759159,1249447.22418,2158.15,NA,"Near forest gest house",2133,12.30186,354.6107,674464.75915918,1249447.22417936
"3650",0.02,0.5,2013-08-01 11:45:00,"TBRG 117",8,24,13,"TBRG 117",11.298367,76.598458,674464.759159,1249447.22418,2158.15,NA,"Near forest gest house",2133,12.30186,354.6107,674464.75915918,1249447.22417936
"33127",0,0,2014-06-04 14:15:00,"TBRG 118",1,25,26,"TBRG 118",11.279607,76.579932,672453.451536,1247361.15558,2363.73,NA,"before jockal place",2346,5.851816,272.2906,672453.451535912,1247361.15558497
"27369",0,0,2014-04-05 14:45:00,"TBRG 118",2,25,26,"TBRG 118",11.279607,76.579932,672453.451536,1247361.15558,2363.73,NA,"before jockal place",2346,5.851816,272.2906,672453.451535912,1247361.15558497
"66347",0.01,0.26,2015-05-16 15:15:00,"TBRG 118",3,25,26,"TBRG 118",11.279607,76.579932,672453.451536,1247361.15558,2363.73,NA,"before jockal place",2346,5.851816,272.2906,672453.451535912,1247361.15558497
"44406",0.02,0.52,2014-09-30 02:00:00,"TBRG 118",4,25,26,"TBRG 118",11.279607,76.579932,672453.451536,1247361.15558,2363.73,NA,"before jockal place",2346,5.851816,272.2906,672453.451535912,1247361.15558497
"78921",0,0,2015-09-24 14:45:00,"TBRG 118",5,25,26,"TBRG 118",11.279607,76.579932,672453.451536,1247361.15558,2363.73,NA,"before jockal place",2346,5.851816,272.2906,672453.451535912,1247361.15558497
"69652",0.01,0.26,2015-06-20 01:30:00,"TBRG 118",6,25,26,"TBRG 118",11.279607,76.579932,672453.451536,1247361.15558,2363.73,NA,"before jockal place",2346,5.851816,272.2906,672453.451535912,1247361.15558497
"69622",0.12,3.12,2015-06-19 18:00:00,"TBRG 118",7,25,26,"TBRG 118",11.279607,76.579932,672453.451536,1247361.15558,2363.73,NA,"before jockal place",2346,5.851816,272.2906,672453.451535912,1247361.15558497
"3645",0.1,2.6,2013-08-01 11:45:00,"TBRG 118",8,25,26,"TBRG 118",11.279607,76.579932,672453.451536,1247361.15558,2363.73,NA,"before jockal place",2346,5.851816,272.2906,672453.451535912,1247361.15558497
"40415",0,0,2014-06-04 14:15:00,"TBRG 119",1,26,NA,"TBRG 119",11.292017,76.569349,671290.661625,1248727.62716,2579.53,"kolaripetta east","from blue shed",2530,22.52484,176.0353,671290.661625145,1248727.62716314
"34657",0,0,2014-04-05 14:45:00,"TBRG 119",2,26,NA,"TBRG 119",11.292017,76.569349,671290.661625,1248727.62716,2579.53,"kolaripetta east","from blue shed",2530,22.52484,176.0353,671290.661625145,1248727.62716314
"73635",0,0,2015-05-16 15:15:00,"TBRG 119",3,26,NA,"TBRG 119",11.292017,76.569349,671290.661625,1248727.62716,2579.53,"kolaripetta east","from blue shed",2530,22.52484,176.0353,671290.661625145,1248727.62716314
"51694",0.01,0.26,2014-09-30 02:00:00,"TBRG 119",4,26,NA,"TBRG 119",11.292017,76.569349,671290.661625,1248727.62716,2579.53,"kolaripetta east","from blue shed",2530,22.52484,176.0353,671290.661625145,1248727.62716314
"86209",0,0,2015-09-24 14:45:00,"TBRG 119",5,26,NA,"TBRG 119",11.292017,76.569349,671290.661625,1248727.62716,2579.53,"kolaripetta east","from blue shed",2530,22.52484,176.0353,671290.661625145,1248727.62716314
"76940",0,0,2015-06-20 01:30:00,"TBRG 119",6,26,NA,"TBRG 119",11.292017,76.569349,671290.661625,1248727.62716,2579.53,"kolaripetta east","from blue shed",2530,22.52484,176.0353,671290.661625145,1248727.62716314
"76910",0,0,2015-06-19 18:00:00,"TBRG 119",7,26,NA,"TBRG 119",11.292017,76.569349,671290.661625,1248727.62716,2579.53,"kolaripetta east","from blue shed",2530,22.52484,176.0353,671290.661625145,1248727.62716314
"10933",0.01,0.26,2013-08-01 11:45:00,"TBRG 119",8,26,NA,"TBRG 119",11.292017,76.569349,671290.661625,1248727.62716,2579.53,"kolaripetta east","from blue shed",2530,22.52484,176.0353,671290.661625145,1248727.62716314
"32069",0,0,2014-06-04 14:15:00,"TBRG 120",1,27,NA,"TBRG 120",11.272445,76.544731,668614.477779,1246548.46504,2321.75,"East side Upparbavani","Uppar bavani west",2317,16.53424,242.0205,668614.477779187,1246548.46504416
"26311",0,0,2014-04-05 14:45:00,"TBRG 120",2,27,NA,"TBRG 120",11.272445,76.544731,668614.477779,1246548.46504,2321.75,"East side Upparbavani","Uppar bavani west",2317,16.53424,242.0205,668614.477779187,1246548.46504416
"65289",0.32,7.68,2015-05-16 15:15:00,"TBRG 120",3,27,NA,"TBRG 120",11.272445,76.544731,668614.477779,1246548.46504,2321.75,"East side Upparbavani","Uppar bavani west",2317,16.53424,242.0205,668614.477779187,1246548.46504416
"43348",0.01,0.24,2014-09-30 02:00:00,"TBRG 120",4,27,NA,"TBRG 120",11.272445,76.544731,668614.477779,1246548.46504,2321.75,"East side Upparbavani","Uppar bavani west",2317,16.53424,242.0205,668614.477779187,1246548.46504416
"77863",0,0,2015-09-24 14:45:00,"TBRG 120",5,27,NA,"TBRG 120",11.272445,76.544731,668614.477779,1246548.46504,2321.75,"East side Upparbavani","Uppar bavani west",2317,16.53424,242.0205,668614.477779187,1246548.46504416
"68594",0,0,2015-06-20 01:30:00,"TBRG 120",6,27,NA,"TBRG 120",11.272445,76.544731,668614.477779,1246548.46504,2321.75,"East side Upparbavani","Uppar bavani west",2317,16.53424,242.0205,668614.477779187,1246548.46504416
"68564",0.13,3.12,2015-06-19 18:00:00,"TBRG 120",7,27,NA,"TBRG 120",11.272445,76.544731,668614.477779,1246548.46504,2321.75,"East side Upparbavani","Uppar bavani west",2317,16.53424,242.0205,668614.477779187,1246548.46504416
"2587",0.14,3.36,2013-08-01 11:45:00,"TBRG 120",8,27,NA,"TBRG 120",11.272445,76.544731,668614.477779,1246548.46504,2321.75,"East side Upparbavani","Uppar bavani west",2317,16.53424,242.0205,668614.477779187,1246548.46504416
"29481",0,0,2014-06-04 14:15:00,"TBRG 122",1,29,NA,"TBRG 122",11.340781,76.596467,674221.732626,1254137.56423,2096.81,"Red hills gest house","Near the temple",2104,15.9502,332.7004,674221.732625813,1254137.56423161
"23723",0,0,2014-04-05 14:45:00,"TBRG 122",2,29,NA,"TBRG 122",11.340781,76.596467,674221.732626,1254137.56423,2096.81,"Red hills gest house","Near the temple",2104,15.9502,332.7004,674221.732625813,1254137.56423161
"62701",0.01,0.24,2015-05-16 15:15:00,"TBRG 122",3,29,NA,"TBRG 122",11.340781,76.596467,674221.732626,1254137.56423,2096.81,"Red hills gest house","Near the temple",2104,15.9502,332.7004,674221.732625813,1254137.56423161
"40760",0.02,0.48,2014-09-30 02:00:00,"TBRG 122",4,29,NA,"TBRG 122",11.340781,76.596467,674221.732626,1254137.56423,2096.81,"Red hills gest house","Near the temple",2104,15.9502,332.7004,674221.732625813,1254137.56423161
"75275",0,0,2015-09-24 14:45:00,"TBRG 122",5,29,NA,"TBRG 122",11.340781,76.596467,674221.732626,1254137.56423,2096.81,"Red hills gest house","Near the temple",2104,15.9502,332.7004,674221.732625813,1254137.56423161
"66006",0.13,3.12,2015-06-20 01:30:00,"TBRG 122",6,29,NA,"TBRG 122",11.340781,76.596467,674221.732626,1254137.56423,2096.81,"Red hills gest house","Near the temple",2104,15.9502,332.7004,674221.732625813,1254137.56423161
"65976",0.04,0.96,2015-06-19 18:00:00,"TBRG 122",7,29,NA,"TBRG 122",11.340781,76.596467,674221.732626,1254137.56423,2096.81,"Red hills gest house","Near the temple",2104,15.9502,332.7004,674221.732625813,1254137.56423161
"NA2",NA,NA,NA,"TBRG 122",8,29,NA,"TBRG 122",11.340781,76.596467,674221.732626,1254137.56423,2096.81,"Red hills gest house","Near the temple",2104,15.9502,332.7004,674221.732625813,1254137.56423161
"27275",0,0,2014-06-04 14:15:00,"TBRG 123",1,30,NA,"TBRG 123",11.25527,76.624558,677340.603932,1244695.80522,1850.02,"Doddacombu","Doddacombu tea factory",1847,8.24718,317.2906,677340.603931552,1244695.8052226
"21517",0,0,2014-04-05 14:45:00,"TBRG 123",2,30,NA,"TBRG 123",11.25527,76.624558,677340.603932,1244695.80522,1850.02,"Doddacombu","Doddacombu tea factory",1847,8.24718,317.2906,677340.603931552,1244695.8052226
"60495",0.04,1,2015-05-16 15:15:00,"TBRG 123",3,30,NA,"TBRG 123",11.25527,76.624558,677340.603932,1244695.80522,1850.02,"Doddacombu","Doddacombu tea factory",1847,8.24718,317.2906,677340.603931552,1244695.8052226
"38554",0.04,1,2014-09-30 02:00:00,"TBRG 123",4,30,NA,"TBRG 123",11.25527,76.624558,677340.603932,1244695.80522,1850.02,"Doddacombu","Doddacombu tea factory",1847,8.24718,317.2906,677340.603931552,1244695.8052226
"73069",0,0,2015-09-24 14:45:00,"TBRG 123",5,30,NA,"TBRG 123",11.25527,76.624558,677340.603932,1244695.80522,1850.02,"Doddacombu","Doddacombu tea factory",1847,8.24718,317.2906,677340.603931552,1244695.8052226
"63800",0,0,2015-06-20 01:30:00,"TBRG 123",6,30,NA,"TBRG 123",11.25527,76.624558,677340.603932,1244695.80522,1850.02,"Doddacombu","Doddacombu tea factory",1847,8.24718,317.2906,677340.603931552,1244695.8052226
"63770",0.19,4.75,2015-06-19 18:00:00,"TBRG 123",7,30,NA,"TBRG 123",11.25527,76.624558,677340.603932,1244695.80522,1850.02,"Doddacombu","Doddacombu tea factory",1847,8.24718,317.2906,677340.603931552,1244695.8052226
"NA3",NA,NA,NA,"TBRG 123",8,30,NA,"TBRG 123",11.25527,76.624558,677340.603932,1244695.80522,1850.02,"Doddacombu","Doddacombu tea factory",1847,8.24718,317.2906,677340.603931552,1244695.8052226
"27066",0,0,2014-06-04 14:15:00,"TBRG 124",1,31,NA,"TBRG 124",11.234528,76.578685,672344.132881,1242374.17004,2239.62,"Korakundha","Korakunda tea estate residence place",2231,6.417728,190.4915,672344.13288104,1242374.17004071
"21308",0,0,2014-04-05 14:45:00,"TBRG 124",2,31,NA,"TBRG 124",11.234528,76.578685,672344.132881,1242374.17004,2239.62,"Korakundha","Korakunda tea estate residence place",2231,6.417728,190.4915,672344.13288104,1242374.17004071
"60286",0.02,0.5,2015-05-16 15:15:00,"TBRG 124",3,31,NA,"TBRG 124",11.234528,76.578685,672344.132881,1242374.17004,2239.62,"Korakundha","Korakunda tea estate residence place",2231,6.417728,190.4915,672344.13288104,1242374.17004071
"38345",0.08,2,2014-09-30 02:00:00,"TBRG 124",4,31,NA,"TBRG 124",11.234528,76.578685,672344.132881,1242374.17004,2239.62,"Korakundha","Korakunda tea estate residence place",2231,6.417728,190.4915,672344.13288104,1242374.17004071
"72860",0.01,0.25,2015-09-24 14:45:00,"TBRG 124",5,31,NA,"TBRG 124",11.234528,76.578685,672344.132881,1242374.17004,2239.62,"Korakundha","Korakunda tea estate residence place",2231,6.417728,190.4915,672344.13288104,1242374.17004071
"63591",0.04,1,2015-06-20 01:30:00,"TBRG 124",6,31,NA,"TBRG 124",11.234528,76.578685,672344.132881,1242374.17004,2239.62,"Korakundha","Korakunda tea estate residence place",2231,6.417728,190.4915,672344.13288104,1242374.17004071
"63561",0.24,6,2015-06-19 18:00:00,"TBRG 124",7,31,NA,"TBRG 124",11.234528,76.578685,672344.132881,1242374.17004,2239.62,"Korakundha","Korakunda tea estate residence place",2231,6.417728,190.4915,672344.13288104,1242374.17004071
"NA4",NA,NA,NA,"TBRG 124",8,31,NA,"TBRG 124",11.234528,76.578685,672344.132881,1242374.17004,2239.62,"Korakundha","Korakunda tea estate residence place",2231,6.417728,190.4915,672344.13288104,1242374.17004071
"26693",0.01,0.23,2014-06-04 14:15:00,"TBRG 125",1,32,NA,"TBRG 125",11.298128,76.556733,669909.741331,1249396.2093,2575.09,"North side of Kolaripetta","Hill top shola catchment",2483,14.79967,29.74488,669909.741330894,1249396.20930348
"20935",0,0,2014-04-05 14:45:00,"TBRG 125",2,32,NA,"TBRG 125",11.298128,76.556733,669909.741331,1249396.2093,2575.09,"North side of Kolaripetta","Hill top shola catchment",2483,14.79967,29.74488,669909.741330894,1249396.20930348
"59909",0,0,2015-05-16 15:15:00,"TBRG 125",3,32,NA,"TBRG 125",11.298128,76.556733,669909.741331,1249396.2093,2575.09,"North side of Kolaripetta","Hill top shola catchment",2483,14.79967,29.74488,669909.741330894,1249396.20930348
"37972",0,0,2014-09-30 02:00:00,"TBRG 125",4,32,NA,"TBRG 125",11.298128,76.556733,669909.741331,1249396.2093,2575.09,"North side of Kolaripetta","Hill top shola catchment",2483,14.79967,29.74488,669909.741330894,1249396.20930348
"72483",0,0,2015-09-24 14:45:00,"TBRG 125",5,32,NA,"TBRG 125",11.298128,76.556733,669909.741331,1249396.2093,2575.09,"North side of Kolaripetta","Hill top shola catchment",2483,14.79967,29.74488,669909.741330894,1249396.20930348
"63214",0.02,0.46,2015-06-20 01:30:00,"TBRG 125",6,32,NA,"TBRG 125",11.298128,76.556733,669909.741331,1249396.2093,2575.09,"North side of Kolaripetta","Hill top shola catchment",2483,14.79967,29.74488,669909.741330894,1249396.20930348
"63184",0.03,0.69,2015-06-19 18:00:00,"TBRG 125",7,32,NA,"TBRG 125",11.298128,76.556733,669909.741331,1249396.2093,2575.09,"North side of Kolaripetta","Hill top shola catchment",2483,14.79967,29.74488,669909.741330894,1249396.20930348
"NA5",NA,NA,NA,"TBRG 125",8,32,NA,"TBRG 125",11.298128,76.556733,669909.741331,1249396.2093,2575.09,"North side of Kolaripetta","Hill top shola catchment",2483,14.79967,29.74488,669909.741330894,1249396.20930348
"26597",0,0,2014-06-04 14:15:00,"TBRG 126",1,33,NA,"TBRG 126",11.311977,76.560309,670291.953934,1250930.13962,2249.63,"Shola chatchment North","Avalanchi power house  root",2220,26.56599,325.008,670291.953934039,1250930.1396211
"20839",0,0,2014-04-05 14:45:00,"TBRG 126",2,33,NA,"TBRG 126",11.311977,76.560309,670291.953934,1250930.13962,2249.63,"Shola chatchment North","Avalanchi power house  root",2220,26.56599,325.008,670291.953934039,1250930.1396211
"59816",0.01,0.24,2015-05-16 15:15:00,"TBRG 126",3,33,NA,"TBRG 126",11.311977,76.560309,670291.953934,1250930.13962,2249.63,"Shola chatchment North","Avalanchi power house  root",2220,26.56599,325.008,670291.953934039,1250930.1396211
"37876",0.01,0.24,2014-09-30 02:00:00,"TBRG 126",4,33,NA,"TBRG 126",11.311977,76.560309,670291.953934,1250930.13962,2249.63,"Shola chatchment North","Avalanchi power house  root",2220,26.56599,325.008,670291.953934039,1250930.1396211
"72390",0,0,2015-09-24 14:45:00,"TBRG 126",5,33,NA,"TBRG 126",11.311977,76.560309,670291.953934,1250930.13962,2249.63,"Shola chatchment North","Avalanchi power house  root",2220,26.56599,325.008,670291.953934039,1250930.1396211
"63121",0.06,1.44,2015-06-20 01:30:00,"TBRG 126",6,33,NA,"TBRG 126",11.311977,76.560309,670291.953934,1250930.13962,2249.63,"Shola chatchment North","Avalanchi power house  root",2220,26.56599,325.008,670291.953934039,1250930.1396211
"63091",0.04,0.96,2015-06-19 18:00:00,"TBRG 126",7,33,NA,"TBRG 126",11.311977,76.560309,670291.953934,1250930.13962,2249.63,"Shola chatchment North","Avalanchi power house  root",2220,26.56599,325.008,670291.953934039,1250930.1396211
"NA6",NA,NA,NA,"TBRG 126",8,33,NA,"TBRG 126",11.311977,76.560309,670291.953934,1250930.13962,2249.63,"Shola chatchment North","Avalanchi power house  root",2220,26.56599,325.008,670291.953934039,1250930.1396211
"NA7",NA,NA,NA,"TBRG 127",1,35,NA,"TBRG 127",11.39937,76.598954,674457.53861,1260619.76926,2262.404541,"Parsonsvelly","Next to the AWS",2243,7.4823,3.576334,674457.538610073,1260619.76926219
"NA.11",NA,NA,NA,"TBRG 127",2,35,NA,"TBRG 127",11.39937,76.598954,674457.53861,1260619.76926,2262.404541,"Parsonsvelly","Next to the AWS",2243,7.4823,3.576334,674457.538610073,1260619.76926219
"9417",0.01,0.24,2015-05-16 15:15:00,"TBRG 127",3,35,NA,"TBRG 127",11.39937,76.598954,674457.53861,1260619.76926,2262.404541,"Parsonsvelly","Next to the AWS",2243,7.4823,3.576334,674457.538610073,1260619.76926219
"NA.21",NA,NA,NA,"TBRG 127",4,35,NA,"TBRG 127",11.39937,76.598954,674457.53861,1260619.76926,2262.404541,"Parsonsvelly","Next to the AWS",2243,7.4823,3.576334,674457.538610073,1260619.76926219
"21991",0,0,2015-09-24 14:45:00,"TBRG 127",5,35,NA,"TBRG 127",11.39937,76.598954,674457.53861,1260619.76926,2262.404541,"Parsonsvelly","Next to the AWS",2243,7.4823,3.576334,674457.538610073,1260619.76926219
"12722",0.05,1.2,2015-06-20 01:30:00,"TBRG 127",6,35,NA,"TBRG 127",11.39937,76.598954,674457.53861,1260619.76926,2262.404541,"Parsonsvelly","Next to the AWS",2243,7.4823,3.576334,674457.538610073,1260619.76926219
"12692",0.08,1.92,2015-06-19 18:00:00,"TBRG 127",7,35,NA,"TBRG 127",11.39937,76.598954,674457.53861,1260619.76926,2262.404541,"Parsonsvelly","Next to the AWS",2243,7.4823,3.576334,674457.538610073,1260619.76926219
"NA.31",NA,NA,NA,"TBRG 127",8,35,NA,"TBRG 127",11.39937,76.598954,674457.53861,1260619.76926,2262.404541,"Parsonsvelly","Next to the AWS",2243,7.4823,3.576334,674457.538610073,1260619.76926219
"NA8",NA,NA,NA,"TBRG 128",1,34,NA,"TBRG 128",11.26117,76.675024,682847.304166,1245379.4193,1613.562012,"Penstorck","next to the AWS",1590,12.43987,301.3287,682847.304166132,1245379.41930048
"NA.12",NA,NA,NA,"TBRG 128",2,34,NA,"TBRG 128",11.26117,76.675024,682847.304166,1245379.4193,1613.562012,"Penstorck","next to the AWS",1590,12.43987,301.3287,682847.304166132,1245379.41930048
"9326",0.05,1.2,2015-05-16 15:15:00,"TBRG 128",3,34,NA,"TBRG 128",11.26117,76.675024,682847.304166,1245379.4193,1613.562012,"Penstorck","next to the AWS",1590,12.43987,301.3287,682847.304166132,1245379.41930048
"NA.22",NA,NA,NA,"TBRG 128",4,34,NA,"TBRG 128",11.26117,76.675024,682847.304166,1245379.4193,1613.562012,"Penstorck","next to the AWS",1590,12.43987,301.3287,682847.304166132,1245379.41930048
"NA.32",NA,NA,NA,"TBRG 128",5,34,NA,"TBRG 128",11.26117,76.675024,682847.304166,1245379.4193,1613.562012,"Penstorck","next to the AWS",1590,12.43987,301.3287,682847.304166132,1245379.41930048
"NA.41",NA,NA,NA,"TBRG 128",6,34,NA,"TBRG 128",11.26117,76.675024,682847.304166,1245379.4193,1613.562012,"Penstorck","next to the AWS",1590,12.43987,301.3287,682847.304166132,1245379.41930048
"NA.51",NA,NA,NA,"TBRG 128",7,34,NA,"TBRG 128",11.26117,76.675024,682847.304166,1245379.4193,1613.562012,"Penstorck","next to the AWS",1590,12.43987,301.3287,682847.304166132,1245379.41930048
"NA.61",NA,NA,NA,"TBRG 128",8,34,NA,"TBRG 128",11.26117,76.675024,682847.304166,1245379.4193,1613.562012,"Penstorck","next to the AWS",1590,12.43987,301.3287,682847.304166132,1245379.41930048
"NA9",NA,NA,NA,"TBRG 129",1,3,30,"TBRG 129",11.2715029999999,76.5517269999979,669378.848250862,1246448.30578536,2347.01,"Border of Mukurthi beyond medow","On ridge",2290,16.56694,128.2902,669378.84825063,1246448.30578536
"NA.13",NA,NA,NA,"TBRG 129",2,3,30,"TBRG 129",11.2715029999999,76.5517269999979,669378.848250862,1246448.30578536,2347.01,"Border of Mukurthi beyond medow","On ridge",2290,16.56694,128.2902,669378.84825063,1246448.30578536
"495",0.14,3.5,2015-05-16 15:15:00,"TBRG 129",3,3,30,"TBRG 129",11.2715029999999,76.5517269999979,669378.848250862,1246448.30578536,2347.01,"Border of Mukurthi beyond medow","On ridge",2290,16.56694,128.2902,669378.84825063,1246448.30578536
"NA.23",NA,NA,NA,"TBRG 129",4,3,30,"TBRG 129",11.2715029999999,76.5517269999979,669378.848250862,1246448.30578536,2347.01,"Border of Mukurthi beyond medow","On ridge",2290,16.56694,128.2902,669378.84825063,1246448.30578536
"13069",0,0,2015-09-24 14:45:00,"TBRG 129",5,3,30,"TBRG 129",11.2715029999999,76.5517269999979,669378.848250862,1246448.30578536,2347.01,"Border of Mukurthi beyond medow","On ridge",2290,16.56694,128.2902,669378.84825063,1246448.30578536
"3800",0,0,2015-06-20 01:30:00,"TBRG 129",6,3,30,"TBRG 129",11.2715029999999,76.5517269999979,669378.848250862,1246448.30578536,2347.01,"Border of Mukurthi beyond medow","On ridge",2290,16.56694,128.2902,669378.84825063,1246448.30578536
"3770",0.14,3.5,2015-06-19 18:00:00,"TBRG 129",7,3,30,"TBRG 129",11.2715029999999,76.5517269999979,669378.848250862,1246448.30578536,2347.01,"Border of Mukurthi beyond medow","On ridge",2290,16.56694,128.2902,669378.84825063,1246448.30578536
"NA.33",NA,NA,NA,"TBRG 129",8,3,30,"TBRG 129",11.2715029999999,76.5517269999979,669378.848250862,1246448.30578536,2347.01,"Border of Mukurthi beyond medow","On ridge",2290,16.56694,128.2902,669378.84825063,1246448.30578536
"NA10",NA,NA,NA,"TBRG 130",1,6,NA,"TBRG 130",11.311977,76.560309,670291.953934,1250930.13962,2249.63,"Shola chatchment North","Avalanchi power house  root",2220,26.56599,325.008,670291.9539338,1250930.13962109
"NA.14",NA,NA,NA,"TBRG 130",2,6,NA,"TBRG 130",11.311977,76.560309,670291.953934,1250930.13962,2249.63,"Shola chatchment North","Avalanchi power house  root",2220,26.56599,325.008,670291.9539338,1250930.13962109
"304",0,0,2015-05-16 15:15:00,"TBRG 130",3,6,NA,"TBRG 130",11.311977,76.560309,670291.953934,1250930.13962,2249.63,"Shola chatchment North","Avalanchi power house  root",2220,26.56599,325.008,670291.9539338,1250930.13962109
"NA.24",NA,NA,NA,"TBRG 130",4,6,NA,"TBRG 130",11.311977,76.560309,670291.953934,1250930.13962,2249.63,"Shola chatchment North","Avalanchi power house  root",2220,26.56599,325.008,670291.9539338,1250930.13962109
"12878",0,0,2015-09-24 14:45:00,"TBRG 130",5,6,NA,"TBRG 130",11.311977,76.560309,670291.953934,1250930.13962,2249.63,"Shola chatchment North","Avalanchi power house  root",2220,26.56599,325.008,670291.9539338,1250930.13962109
"3609",0.05,1.25,2015-06-20 01:30:00,"TBRG 130",6,6,NA,"TBRG 130",11.311977,76.560309,670291.953934,1250930.13962,2249.63,"Shola chatchment North","Avalanchi power house  root",2220,26.56599,325.008,670291.9539338,1250930.13962109
"3579",0.05,1.25,2015-06-19 18:00:00,"TBRG 130",7,6,NA,"TBRG 130",11.311977,76.560309,670291.953934,1250930.13962,2249.63,"Shola chatchment North","Avalanchi power house  root",2220,26.56599,325.008,670291.9539338,1250930.13962109
"NA.34",NA,NA,NA,"TBRG 130",8,6,NA,"TBRG 130",11.311977,76.560309,670291.953934,1250930.13962,2249.63,"Shola chatchment North","Avalanchi power house  root",2220,26.56599,325.008,670291.9539338,1250930.13962109
"NA11",NA,NA,NA,"TBRG 131",1,4,29,"TBRG 131",11.2983559999999,76.5717639999977,671550.546143604,1249430.20782142,2327.49,"Overlooking Avalanche generation station","Just below ridge",2293,28.00674,102.0023,671550.546143356,1249430.20782141
"NA.15",NA,NA,NA,"TBRG 131",2,4,29,"TBRG 131",11.2983559999999,76.5717639999977,671550.546143604,1249430.20782142,2327.49,"Overlooking Avalanche generation station","Just below ridge",2293,28.00674,102.0023,671550.546143356,1249430.20782141
"1418",0,0,2015-05-16 15:15:00,"TBRG 131",3,4,29,"TBRG 131",11.2983559999999,76.5717639999977,671550.546143604,1249430.20782142,2327.49,"Overlooking Avalanche generation station","Just below ridge",2293,28.00674,102.0023,671550.546143356,1249430.20782141
"NA.25",NA,NA,NA,"TBRG 131",4,4,29,"TBRG 131",11.2983559999999,76.5717639999977,671550.546143604,1249430.20782142,2327.49,"Overlooking Avalanche generation station","Just below ridge",2293,28.00674,102.0023,671550.546143356,1249430.20782141
"13992",0,0,2015-09-24 14:45:00,"TBRG 131",5,4,29,"TBRG 131",11.2983559999999,76.5717639999977,671550.546143604,1249430.20782142,2327.49,"Overlooking Avalanche generation station","Just below ridge",2293,28.00674,102.0023,671550.546143356,1249430.20782141
"4723",0.02,0.44,2015-06-20 01:30:00,"TBRG 131",6,4,29,"TBRG 131",11.2983559999999,76.5717639999977,671550.546143604,1249430.20782142,2327.49,"Overlooking Avalanche generation station","Just below ridge",2293,28.00674,102.0023,671550.546143356,1249430.20782141
"4693",0.01,0.22,2015-06-19 18:00:00,"TBRG 131",7,4,29,"TBRG 131",11.2983559999999,76.5717639999977,671550.546143604,1249430.20782142,2327.49,"Overlooking Avalanche generation station","Just below ridge",2293,28.00674,102.0023,671550.546143356,1249430.20782141
"NA.35",NA,NA,NA,"TBRG 131",8,4,29,"TBRG 131",11.2983559999999,76.5717639999977,671550.546143604,1249430.20782142,2327.49,"Overlooking Avalanche generation station","Just below ridge",2293,28.00674,102.0023,671550.546143356,1249430.20782141
"NA12",NA,NA,NA,"TBRG 132",1,5,NA,"TBRG 132",11.298128,76.556733,669909.741331,1249396.2093,2575.09,"North side of Kolaripetta","Hill top shola catchment",2483,14.79967,29.74488,669909.741330656,1249396.20930348
"NA.16",NA,NA,NA,"TBRG 132",2,5,NA,"TBRG 132",11.298128,76.556733,669909.741331,1249396.2093,2575.09,"North side of Kolaripetta","Hill top shola catchment",2483,14.79967,29.74488,669909.741330656,1249396.20930348
"950",0,0,2015-05-16 15:15:00,"TBRG 132",3,5,NA,"TBRG 132",11.298128,76.556733,669909.741331,1249396.2093,2575.09,"North side of Kolaripetta","Hill top shola catchment",2483,14.79967,29.74488,669909.741330656,1249396.20930348
"NA.26",NA,NA,NA,"TBRG 132",4,5,NA,"TBRG 132",11.298128,76.556733,669909.741331,1249396.2093,2575.09,"North side of Kolaripetta","Hill top shola catchment",2483,14.79967,29.74488,669909.741330656,1249396.20930348
"13524",0,0,2015-09-24 14:45:00,"TBRG 132",5,5,NA,"TBRG 132",11.298128,76.556733,669909.741331,1249396.2093,2575.09,"North side of Kolaripetta","Hill top shola catchment",2483,14.79967,29.74488,669909.741330656,1249396.20930348
"4255",0.02,0.44,2015-06-20 01:30:00,"TBRG 132",6,5,NA,"TBRG 132",11.298128,76.556733,669909.741331,1249396.2093,2575.09,"North side of Kolaripetta","Hill top shola catchment",2483,14.79967,29.74488,669909.741330656,1249396.20930348
"4225",0.03,0.66,2015-06-19 18:00:00,"TBRG 132",7,5,NA,"TBRG 132",11.298128,76.556733,669909.741331,1249396.2093,2575.09,"North side of Kolaripetta","Hill top shola catchment",2483,14.79967,29.74488,669909.741330656,1249396.20930348
"NA.36",NA,NA,NA,"TBRG 132",8,5,NA,"TBRG 132",11.298128,76.556733,669909.741331,1249396.2093,2575.09,"North side of Kolaripetta","Hill top shola catchment",2483,14.79967,29.74488,669909.741330656,1249396.20930348
"NA13",NA,NA,NA,"TBRG 133",1,36,NA,"TBRG 133",11.267255,76.57699,672139.602857,1245993.151945,2301.899414,"Deverbetta","Near wattle v notch",2320,13.23784,187.0013,672139.602857421,1245993.15194539
"NA.17",NA,NA,NA,"TBRG 133",2,36,NA,"TBRG 133",11.267255,76.57699,672139.602857,1245993.151945,2301.899414,"Deverbetta","Near wattle v notch",2320,13.23784,187.0013,672139.602857421,1245993.15194539
"NA.27",NA,NA,NA,"TBRG 133",3,36,NA,"TBRG 133",11.267255,76.57699,672139.602857,1245993.151945,2301.899414,"Deverbetta","Near wattle v notch",2320,13.23784,187.0013,672139.602857421,1245993.15194539
"NA.37",NA,NA,NA,"TBRG 133",4,36,NA,"TBRG 133",11.267255,76.57699,672139.602857,1245993.151945,2301.899414,"Deverbetta","Near wattle v notch",2320,13.23784,187.0013,672139.602857421,1245993.15194539
"9985",NA,NA,2015-09-24 14:45:00,"TBRG 133",5,36,NA,"TBRG 133",11.267255,76.57699,672139.602857,1245993.151945,2301.899414,"Deverbetta","Near wattle v notch",2320,13.23784,187.0013,672139.602857421,1245993.15194539
"716",0,0,2015-06-20 01:30:00,"TBRG 133",6,36,NA,"TBRG 133",11.267255,76.57699,672139.602857,1245993.151945,2301.899414,"Deverbetta","Near wattle v notch",2320,13.23784,187.0013,672139.602857421,1245993.15194539
"686",0.17,4.08,2015-06-19 18:00:00,"TBRG 133",7,36,NA,"TBRG 133",11.267255,76.57699,672139.602857,1245993.151945,2301.899414,"Deverbetta","Near wattle v notch",2320,13.23784,187.0013,672139.602857421,1245993.15194539
"NA.42",NA,NA,NA,"TBRG 133",8,36,NA,"TBRG 133",11.267255,76.57699,672139.602857,1245993.151945,2301.899414,"Deverbetta","Near wattle v notch",2320,13.23784,187.0013,672139.602857421,1245993.15194539
"NA14",NA,NA,NA,"TBRG 134",1,2,28,"TBRG 134",11.2718329999999,76.5704249999977,671420.106396372,1246495.68183352,2362.19,"Overlooking Lakdihalla temple","On ridge",2345,2.345711,143.1301,671420.106396125,1246495.6818335
"NA.18",NA,NA,NA,"TBRG 134",2,2,28,"TBRG 134",11.2718329999999,76.5704249999977,671420.106396372,1246495.68183352,2362.19,"Overlooking Lakdihalla temple","On ridge",2345,2.345711,143.1301,671420.106396125,1246495.6818335
"NA.28",NA,NA,NA,"TBRG 134",3,2,28,"TBRG 134",11.2718329999999,76.5704249999977,671420.106396372,1246495.68183352,2362.19,"Overlooking Lakdihalla temple","On ridge",2345,2.345711,143.1301,671420.106396125,1246495.6818335
"NA.38",NA,NA,NA,"TBRG 134",4,2,28,"TBRG 134",11.2718329999999,76.5704249999977,671420.106396372,1246495.68183352,2362.19,"Overlooking Lakdihalla temple","On ridge",2345,2.345711,143.1301,671420.106396125,1246495.6818335
"8068",0,0,2015-09-24 14:45:00,"TBRG 134",5,2,28,"TBRG 134",11.2718329999999,76.5704249999977,671420.106396372,1246495.68183352,2362.19,"Overlooking Lakdihalla temple","On ridge",2345,2.345711,143.1301,671420.106396125,1246495.6818335
"NA.43",NA,NA,NA,"TBRG 134",6,2,28,"TBRG 134",11.2718329999999,76.5704249999977,671420.106396372,1246495.68183352,2362.19,"Overlooking Lakdihalla temple","On ridge",2345,2.345711,143.1301,671420.106396125,1246495.6818335
"NA.52",NA,NA,NA,"TBRG 134",7,2,28,"TBRG 134",11.2718329999999,76.5704249999977,671420.106396372,1246495.68183352,2362.19,"Overlooking Lakdihalla temple","On ridge",2345,2.345711,143.1301,671420.106396125,1246495.6818335
"NA.62",NA,NA,NA,"TBRG 134",8,2,28,"TBRG 134",11.2718329999999,76.5704249999977,671420.106396372,1246495.68183352,2362.19,"Overlooking Lakdihalla temple","On ridge",2345,2.345711,143.1301,671420.106396125,1246495.6818335
